GLOBALSTAR M075         
1 37192U 10054E   25344.44605961 -.00000087  00000+0  92611-4 0  9993
2 37192  51.9967   4.8665 0000311 100.2887  46.3225 12.62270344698108
GLOBALSTAR M073         
1 37193U 10054F   25344.12093131 -.00000077  00000+0  14806-3 0  9997
2 37193  52.0068 279.8135 0000723  37.6945  68.6090 12.62265023700057
GLOBALSTAR M083         
1 37739U 11033A   25344.66866580 -.00000093  00000+0  59737-4 0  9997
2 37739  51.9846 226.6329 0000849  60.1018 318.3860 12.62265457669146
GLOBALSTAR M088         
1 37740U 11033B   25344.40638646 -.00000100  00000+0  19652-4 0  9992
2 37740  52.0194 133.3996 0001071 107.2921 277.9911 12.62271003664656
GLOBALSTAR M091         
1 37741U 11033C   25344.57552465 -.00000090  00000+0  74796-4 0  9993
2 37741  51.9997  96.1300 0000744 127.3547 246.1827 12.62262378665463
GLOBALSTAR M085         
1 37742U 11033D   25344.48305359 -.00000088  00000+0  86945-4 0  9998
2 37742  52.0147  47.5387 0000397 152.1844 221.6700 12.62267195665963
GLOBALSTAR M081         
1 37743U 11033E   25344.36516728 -.00000085  00000+0  10368-3 0  9992
2 37743  51.9975  50.5471 0000349 118.7872 319.6747 12.62270772666094
GLOBALSTAR M089         
1 37744U 11033F   25344.31110888 -.00000078  00000+0  14530-3 0  9992
2 37744  51.9955   4.9074 0000555  78.3177 295.0173 12.62262145666931
